IRIDIUM 155             
1 43573U 18061E   22086.18031314  .00000161  00000+0  50416-4 0  9994
2 43573  86.4004 341.5438 0002185  74.8356 285.3081 14.34217775192205
IRIDIUM 154             
1 43574U 18061F   22086.44034749  .00000158  00000+0  49246-4 0  9994
2 43574  86.4008 341.4948 0002245  91.2040 268.9413 14.34220022192288
IRIDIUM 163             
1 43575U 18061G   22085.79340940  .00000164  00000+0  51499-4 0  9995
2 43575  86.4006 341.7276 0001751  91.4603 268.6794 14.34215991192167
IRIDIUM 156             
1 43576U 18061H   22086.18664263  .00000160  00000+0  50056-4 0  9991
2 43576  86.4006 341.5687 0001833  79.9901 280.1501 14.34219858192201
IRIDIUM 164             
1 43577U 18061J   22086.44670567  .00000164  00000+0  51461-4 0  9990
2 43577  86.4005 341.4768 0002102  91.9191 268.2245 14.34216019192292
IRIDIUM 159             
1 43578U 18061K   22086.20567632  .00000139  00000+0  42548-4 0  9991
2 43578  86.4005 341.5466 0002190  89.5414 270.6032 14.34215594192228
IRIDIUM 180             
1 43922U 19002A   22085.57724428  .00000029  00000+0  33946-5 0  9998
2 43922  86.3914 278.6474 0002239 108.9915 251.1524 14.34217325167781
IRIDIUM 176             
1 43923U 19002B   22086.49585879  .00000217  00000+0  30567-4 0  9990
2 43923  86.6050 278.2978 0002405  87.6733 272.4760 14.72250917172271
IRIDIUM 168             
1 43924U 19002C   22086.54765338  .00000064  00000+0  15735-4 0  9997
2 43924  86.3917 278.2752 0002249  96.2429 263.9023 14.34218246167868
IRIDIUM 173             
1 43925U 19002D   22086.53496817  .00000066  00000+0  16538-4 0  9994
2 43925  86.3913 278.2322 0002152  95.7876 264.3565 14.34218197167851
IRIDIUM 169             
1 43926U 19002E   22085.87918109  .00000194  00000+0  56789-4 0  9998
2 43926  86.4203 310.1337 0005947  42.5796 317.5863 14.38607029168340
IRIDIUM 172             
1 43927U 19002F   22086.52863460  .00000074  00000+0  19457-4 0  9999
2 43927  86.3914 278.2382 0002201  98.4736 261.6710 14.34218195167850
IRIDIUM 175             
1 43928U 19002G   22086.48965814  .00000216  00000+0  30348-4 0  9991
2 43928  86.6052 278.1281 0002326  99.8444 260.3035 14.72250591172268
IRIDIUM 171             
1 43929U 19002H   22086.09098153  .00000051  00000+0  11106-4 0  9990
2 43929  86.3923 278.5564 0002259  95.8393 264.3061 14.34218945167784
IRIDIUM 170             
1 43930U 19002J   22085.82233502  .00000192  00000+0  26478-4 0  9995
2 43930  86.6050 278.5854 0002470  90.8043 269.3457 14.72258765172184
IRIDIUM 167             
1 43931U 19002K   22086.08463826  .00000061  00000+0  14715-4 0  9995
2 43931  86.3914 278.4327 0002300 103.2862 256.8591 14.34216865167788
